ONEWEB-0525             
1 54143U 22138AG  24052.89439472  .00000106  00000+0  23304-3 0  9993
2 54143  87.9155 113.4408 0002256  93.1288 267.0103 13.19725021 65204
ONEWEB-0526             
1 54144U 22138AH  24052.70011234 -.00000020  00000+0 -81875-4 0  9991
2 54144  87.9153 113.4771 0001983  94.7799 265.3560 13.19724460 65154
ONEWEB-0529             
1 54145U 22138AJ  24052.85490397  .00000042  00000+0  73098-4 0  9999
2 54145  87.9159 113.4525 0002189  90.0841 270.0542 13.19725272 65193
ONEWEB-0531             
1 54146U 22138AK  24052.80187954  .00000148  00000+0  33158-3 0  9996
2 54146  87.9132  82.8882 0000812 107.6797 252.4425 13.20771118 67587
ONEWEB-0535             
1 54147U 22138AL  24052.88807378  .00000075  00000+0  15610-3 0  9996
2 54147  87.9152 113.4381 0001796 109.2170 250.9157 13.19724878 65212
ONEWEB-0536             
1 54148U 22138AM  24052.78925809  .00001188  00000+0  28897-2 0  9992
2 54148  87.9131  82.9418 0001495 125.9647 234.1625 13.20773574 67575
GSLV R/B                
1 54149U 22138AN  24052.95341704  .00003418  00000+0  35085-3 0  9994
2 54149  87.3765  55.7649 0023064 339.5752  20.4550 14.89928413 72471
ONEWEB-0527             
1 54642U 22166A   24052.96121936  .00000091  00000+0  18838-3 0  9998
2 54642  87.9211  52.4250 0001808  84.1092 276.0248 13.21824509 59749
